{
  "links" : {
    "next" : "https://api.nasa.gov/neo/rest/v1/feed?start_date=2015-10-16&end_date=2015-10-16&detailed=true&api_key=t0TVs3DtDT2H8Oy2Zy8m2eVrNsAVKAexjcZXUckd",
    "prev" : "https://api.nasa.gov/neo/rest/v1/feed?start_date=2015-10-14&end_date=2015-10-14&detailed=true&api_key=t0TVs3DtDT2H8Oy2Zy8m2eVrNsAVKAexjcZXUckd",
    "self" : "https://api.nasa.gov/neo/rest/v1/feed?start_date=2015-10-15&end_date=2015-10-15&detailed=true&api_key=t0TVs3DtDT2H8Oy2Zy8m2eVrNsAVKAexjcZXUckd"
  },
  "element_count" : 9,
  "near_earth_objects" : {
    "2015-10-15" : [ {
      "links" : {
        "self" : "https://api.nasa.gov/neo/rest/v1/neo/3729278?api_key=t0TVs3DtDT2H8Oy2Zy8m2eVrNsAVKAexjcZXUckd"
      },
      "neo_reference_id" : "3729278",
      "name" : "(2015 TY24)",
      "nasa_jpl_url" : "http://ssd.jpl.nasa.gov/sbdb.cgi?sstr=3729278",
      "absolute_magnitude_h" : 22.2,
      "estimated_diameter" : {
        "kilometers" : {
          "estimated_diameter_min" : 0.096506147,
          "estimated_diameter_max" : 0.2157943048
        },
        "meters" : {
          "estimated_diameter_min" : 96.5061469579,
          "estimated_diameter_max" : 215.7943048444
        },
        "miles" : {
          "estimated_diameter_min" : 0.059966121,
          "estimated_diameter_max" : 0.134088323
        },
        "feet" : {
          "estimated_diameter_min" : 316.6212271853,
          "estimated_diameter_max" : 707.9865871058
        }
      },
      "is_potentially_hazardous_asteroid" : false,
      "close_approach_data" : [ {
        "close_approach_date" : "2015-10-15",
        "epoch_date_close_approach" : 1444892400000,
        "relative_velocity" : {
          "kilometers_per_second" : "8.3348681966",
          "kilometers_per_hour" : "30005.5255079297",
          "miles_per_hour" : "18644.26666908"
        },
        "miss_distance" : {
          "astronomical" : "0.2084212333",
          "lunar" : "81.0758590698",
          "kilometers" : "31179372",
          "miles" : "19373964"
        },
        "orbiting_body" : "Earth"
      } ],
      "orbital_data" : {
        "orbit_id" : "12",
        "orbit_determination_date" : "2017-04-06 08:31:32",
        "orbit_uncertainty" : "6",
        "minimum_orbit_intersection" : ".125824",
        "jupiter_tisserand_invariant" : "3.479",
        "epoch_osculation" : "2458000.5",
        "eccentricity" : ".4906872896860254",
        "semi_major_axis" : "2.209705516711003",
        "inclination" : "8.199601662696459",
        "ascending_node_longitude" : "190.2512789920555",
        "orbital_period" : "1199.775603829999",
        "perihelion_distance" : "1.125431105711823",
        "perihelion_argument" : "183.6084473220835",
        "aphelion_distance" : "3.293979927710184",
        "perihelion_time" : "2458512.189338217682",
        "mean_anomaly" : "206.4644878839639",
        "mean_motion" : ".3000561095348041",
        "equinox" : "J2000"
      }
    }, {
      "links" : {
        "self" : "https://api.nasa.gov/neo/rest/v1/neo/3733259?api_key=t0TVs3DtDT2H8Oy2Zy8m2eVrNsAVKAexjcZXUckd"
      },
      "neo_reference_id" : "3733259",
      "name" : "(2015 VZ1)",
      "nasa_jpl_url" : "http://ssd.jpl.nasa.gov/sbdb.cgi?sstr=3733259",
      "absolute_magnitude_h" : 23.2,
      "estimated_diameter" : {
        "kilometers" : {
          "estimated_diameter_min" : 0.0608912622,
          "estimated_diameter_max" : 0.1361570015
        },
        "meters" : {
          "estimated_diameter_min" : 60.8912622106,
          "estimated_diameter_max" : 136.1570015386
        },
        "miles" : {
          "estimated_diameter_min" : 0.0378360645,
          "estimated_diameter_max" : 0.0846040122
        },
        "feet" : {
          "estimated_diameter_min" : 199.7744887109,
          "estimated_diameter_max" : 446.7093369279
        }
      },
      "is_potentially_hazardous_asteroid" : false,
      "close_approach_data" : [ {
        "close_approach_date" : "2015-10-15",
        "epoch_date_close_approach" : 1444892400000,
        "relative_velocity" : {
          "kilometers_per_second" : "16.3300477855",
          "kilometers_per_hour" : "58788.17202766",
          "miles_per_hour" : "36528.6838912979"
        },
        "miss_distance" : {
          "astronomical" : "0.0992041999",
          "lunar" : "38.5904312134",
          "kilometers" : "14840737",
          "miles" : "9221606"
        },
        "orbiting_body" : "Earth"
      } ],
      "orbital_data" : {
        "orbit_id" : "6",
        "orbit_determination_date" : "2017-04-06 08:30:59",
        "orbit_uncertainty" : "9",
        "minimum_orbit_intersection" : ".0262484",
        "jupiter_tisserand_invariant" : "3.645",
        "epoch_osculation" : "2457331.5",
        "eccentricity" : ".5594997897610819",
        "semi_major_axis" : "1.973234925014825",
        "inclination" : "9.202719019636564",
        "ascending_node_longitude" : "22.21368181230059",
        "orbital_period" : "1012.433757244403",
        "perihelion_distance" : ".8692103993198059",
        "perihelion_argument" : "299.1078573076931",
        "aphelion_distance" : "3.077259450709843",
        "perihelion_time" : "2457270.452504961347",
        "mean_anomaly" : "21.7071962058351",
        "mean_motion" : ".3555788192798232",
        "equinox" : "J2000"
      }
    }, {
      "links" : {
        "self" : "https://api.nasa.gov/neo/rest/v1/neo/3648873?api_key=t0TVs3DtDT2H8Oy2Zy8m2eVrNsAVKAexjcZXUckd"
      },
      "neo_reference_id" : "3648873",
      "name" : "(2013 TB6)",
      "nasa_jpl_url" : "http://ssd.jpl.nasa.gov/sbdb.cgi?sstr=3648873",
      "absolute_magnitude_h" : 22.6,
      "estimated_diameter" : {
        "kilometers" : {
          "estimated_diameter_min" : 0.0802703167,
          "estimated_diameter_max" : 0.1794898848
        },
        "meters" : {
          "estimated_diameter_min" : 80.2703167283,
          "estimated_diameter_max" : 179.4898847799
        },
        "miles" : {
          "estimated_diameter_min" : 0.049877647,
          "estimated_diameter_max" : 0.1115298092
        },
        "feet" : {
          "estimated_diameter_min" : 263.3540659348,
          "estimated_diameter_max" : 588.8775935812
        }
      },
      "is_potentially_hazardous_asteroid" : false,
      "close_approach_data" : [ {
        "close_approach_date" : "2015-10-15",
        "epoch_date_close_approach" : 1444892400000,
        "relative_velocity" : {
          "kilometers_per_second" : "26.6281520795",
          "kilometers_per_hour" : "95861.3474863426",
          "miles_per_hour" : "59564.5133867221"
        },
        "miss_distance" : {
          "astronomical" : "0.4027418712",
          "lunar" : "156.666595459",
          "kilometers" : "60249328",
          "miles" : "37437196"
        },
        "orbiting_body" : "Earth"
      } ],
      "orbital_data" : {
        "orbit_id" : "18",
        "orbit_determination_date" : "2017-04-06 08:44:19",
        "orbit_uncertainty" : "5",
        "minimum_orbit_intersection" : ".0486739",
        "jupiter_tisserand_invariant" : "7.283",
        "epoch_osculation" : "2458000.5",
        "eccentricity" : ".4834279187461137",
        "semi_major_axis" : ".7855656503866447",
        "inclination" : "14.35070280320103",
        "ascending_node_longitude" : "22.6251222589067",
        "orbital_period" : "254.3151043914417",
        "perihelion_distance" : ".4058012829817919",
        "perihelion_argument" : "201.859670302503",
        "aphelion_distance" : "1.165330017791498",
        "perihelion_time" : "2458016.515206882195",
        "mean_anomaly" : "337.3294060083983",
        "mean_motion" : "1.415566727196384",
        "equinox" : "J2000"
      }
    } ]
  }
}